[Satellite]
VERSION=1.1
NAME=ORBCOMM FM01 [-]
NICKNAME=ORBCOMM FM01 [-]
TLE1=1 23545U 95017A   17186.26935024  .00000190  00000-0  43176-4 0  9990
TLE2=2 23545  69.9706 296.4892 0008292 290.3490  69.6764 14.70765563184517
